{
  "type": "FeatureCollection",
  "name": "graph",
  "features": [
    { "type": "Feature", "geometry": { "type": "Point", "coordinates": [-2.933, -0.040] }, "properties": { "frame": "map", "id": 1 } },
    { "type": "Feature", "geometry": { "type": "Point", "coordinates": [-2.250, -0.157] }, "properties": { "frame": "map", "id": 2 } },
    { "type": "Feature", "geometry": { "type": "Point", "coordinates": [-1.450, -0.157] }, "properties": { "frame": "map", "id": 3 } },
    { "type": "Feature", "geometry": { "type": "Point", "coordinates": [-0.650, -0.157] }, "properties": { "frame": "map", "id": 4 } },
    { "type": "Feature", "geometry": { "type": "Point", "coordinates": [-0.007, -0.011] }, "properties": { "frame": "map", "id": 5 } },
    { "type": "Feature", "geometry": { "type": "Point", "coordinates": [0.150, 0.643] }, "properties": { "frame": "map", "id": 6 } },
    { "type": "Feature", "geometry": { "type": "Point", "coordinates": [0.150, 1.443] }, "properties": { "frame": "map", "id": 7 } },
    { "type": "Feature", "geometry": { "type": "Point", "coordinates": [0.150, 2.243] }, "properties": { "frame": "map", "id": 8 } },
    { "type": "Feature", "geometry": { "type": "Point", "coordinates": [0.033, 2.926] }, "properties": { "frame": "map", "id": 9 } },
    { "type": "Feature", "geometry": { "type": "Point", "coordinates": [-0.650, 3.043] }, "properties": { "frame": "map", "id": 10 } },
    { "type": "Feature", "geometry": { "type": "Point", "coordinates": [-1.450, 3.043] }, "properties": { "frame": "map", "id": 11 } },
    { "type": "Feature", "geometry": { "type": "Point", "coordinates": [-2.250, 3.043] }, "properties": { "frame": "map", "id": 12 } },
    { "type": "Feature", "geometry": { "type": "Point", "coordinates": [-2.933, 2.926] }, "properties": { "frame": "map", "id": 13 } },
    { "type": "Feature", "geometry": { "type": "Point", "coordinates": [-3.050, 2.243] }, "properties": { "frame": "map", "id": 14 } },
    { "type": "Feature", "geometry": { "type": "Point", "coordinates": [-3.050, 1.443] }, "properties": { "frame": "map", "id": 15 } },
    { "type": "Feature", "geometry": { "type": "Point", "coordinates": [-3.050, 0.643] }, "properties": { "frame": "map", "id": 16 } },
    { "type": "Feature", "geometry": { "type": "Point", "coordinates": [-1.450, 0.643] }, "properties": { "frame": "map", "id": 17 } },
    { "type": "Feature", "geometry": { "type": "Point", "coordinates": [-0.650, 1.443] }, "properties": { "frame": "map", "id": 18 } },
    { "type": "Feature", "geometry": { "type": "Point", "coordinates": [-1.450, 2.243] }, "properties": { "frame": "map", "id": 19 } },
    { "type": "Feature", "geometry": { "type": "Point", "coordinates": [-2.250, 1.443] }, "properties": { "frame": "map", "id": 20 } },
    { "type": "Feature", "geometry": { "type": "Point", "coordinates": [-1.450, 1.443] }, "properties": { "frame": "map", "id": 21 } },

    { "type": "Feature", "geometry": { "type": "MultiLineString" }, "properties": { "cost": 0.0, "endid": 2, "id": 100, "overridable": true, "startid": 1 } },
    { "type": "Feature", "geometry": { "type": "MultiLineString" }, "properties": { "cost": 0.0, "endid": 3, "id": 101, "overridable": true, "startid": 2 } },
    { "type": "Feature", "geometry": { "type": "MultiLineString" }, "properties": { "cost": 0.0, "endid": 4, "id": 102, "overridable": true, "startid": 3 } },
    { "type": "Feature", "geometry": { "type": "MultiLineString", "coordinates": [[[-0.650, -0.157], [-0.007, -0.011]]] }, "properties": { "cost": 0.0, "endid": 5, "id": 103, "overridable": true, "startid": 4 } },
    { "type": "Feature", "geometry": { "type": "MultiLineString" }, "properties": { "cost": 0.0, "endid": 6, "id": 104, "overridable": true, "startid": 5 } },
    { "type": "Feature", "geometry": { "type": "MultiLineString" }, "properties": { "cost": 0.0, "endid": 7, "id": 105, "overridable": true, "startid": 6 } },
    { "type": "Feature", "geometry": { "type": "MultiLineString" }, "properties": { "cost": 0.0, "endid": 8, "id": 106, "overridable": true, "startid": 7 } },
    { "type": "Feature", "geometry": { "type": "MultiLineString" }, "properties": { "cost": 0.0, "endid": 9, "id": 107, "overridable": true, "startid": 8 } },
    { "type": "Feature", "geometry": { "type": "MultiLineString" }, "properties": { "cost": 0.0, "endid": 10, "id": 108, "overridable": true, "startid": 9 } },
    { "type": "Feature", "geometry": { "type": "MultiLineString" }, "properties": { "cost": 0.0, "endid": 11, "id": 109, "overridable": true, "startid": 10 } },
    { "type": "Feature", "geometry": { "type": "MultiLineString" }, "properties": { "cost": 0.0, "endid": 12, "id": 110, "overridable": true, "startid": 11 } },
    { "type": "Feature", "geometry": { "type": "MultiLineString" }, "properties": { "cost": 0.0, "endid": 13, "id": 111, "overridable": true, "startid": 12 } },
    { "type": "Feature", "geometry": { "type": "MultiLineString" }, "properties": { "cost": 0.0, "endid": 14, "id": 112, "overridable": true, "startid": 13 } },
    { "type": "Feature", "geometry": { "type": "MultiLineString" }, "properties": { "cost": 0.0, "endid": 15, "id": 113, "overridable": true, "startid": 14 } },
    { "type": "Feature", "geometry": { "type": "MultiLineString" }, "properties": { "cost": 0.0, "endid": 16, "id": 114, "overridable": true, "startid": 15 } },
    { "type": "Feature", "geometry": { "type": "MultiLineString" }, "properties": { "cost": 0.0, "endid": 1, "id": 115, "overridable": true, "startid": 16 } },

    { "type": "Feature", "geometry": { "type": "MultiLineString" }, "properties": { "cost": 0.0, "endid": 18, "id": 116, "overridable": true, "startid": 17 } },
    { "type": "Feature", "geometry": { "type": "MultiLineString" }, "properties": { "cost": 0.0, "endid": 17, "id": 117, "overridable": true, "startid": 18 } },
    { "type": "Feature", "geometry": { "type": "MultiLineString" }, "properties": { "cost": 0.0, "endid": 19, "id": 118, "overridable": true, "startid": 18 } },
    { "type": "Feature", "geometry": { "type": "MultiLineString" }, "properties": { "cost": 0.0, "endid": 18, "id": 119, "overridable": true, "startid": 19 } },
    { "type": "Feature", "geometry": { "type": "MultiLineString" }, "properties": { "cost": 0.0, "endid": 20, "id": 120, "overridable": true, "startid": 19 } },
    { "type": "Feature", "geometry": { "type": "MultiLineString" }, "properties": { "cost": 0.0, "endid": 19, "id": 121, "overridable": true, "startid": 20 } },
    { "type": "Feature", "geometry": { "type": "MultiLineString" }, "properties": { "cost": 0.0, "endid": 17, "id": 122, "overridable": true, "startid": 20 } },
    { "type": "Feature", "geometry": { "type": "MultiLineString" }, "properties": { "cost": 0.0, "endid": 20, "id": 123, "overridable": true, "startid": 17 } },

    { "type": "Feature", "geometry": { "type": "MultiLineString" }, "properties": { "cost": 0.0, "endid": 17, "id": 124, "overridable": true, "startid": 3 } },
    { "type": "Feature", "geometry": { "type": "MultiLineString" }, "properties": { "cost": 0.0, "endid": 3, "id": 125, "overridable": true, "startid": 17 } },
    { "type": "Feature", "geometry": { "type": "MultiLineString" }, "properties": { "cost": 0.0, "endid": 18, "id": 126, "overridable": true, "startid": 7 } },
    { "type": "Feature", "geometry": { "type": "MultiLineString" }, "properties": { "cost": 0.0, "endid": 7, "id": 127, "overridable": true, "startid": 18 } },
    { "type": "Feature", "geometry": { "type": "MultiLineString" }, "properties": { "cost": 0.0, "endid": 19, "id": 128, "overridable": true, "startid": 11 } },
    { "type": "Feature", "geometry": { "type": "MultiLineString" }, "properties": { "cost": 0.0, "endid": 11, "id": 129, "overridable": true, "startid": 19 } },
    { "type": "Feature", "geometry": { "type": "MultiLineString" }, "properties": { "cost": 0.0, "endid": 20, "id": 130, "overridable": true, "startid": 15 } },
    { "type": "Feature", "geometry": { "type": "MultiLineString" }, "properties": { "cost": 0.0, "endid": 15, "id": 131, "overridable": true, "startid": 20 } },
    { "type": "Feature", "geometry": { "type": "MultiLineString", "coordinates": [[[-1.450, 0.643], [-1.450, 1.443]]] }, "properties": { "cost": 0.0, "endid": 21, "id": 132, "overridable": true, "startid": 17 } },
    { "type": "Feature", "geometry": { "type": "MultiLineString", "coordinates": [[[-1.450, 1.443], [-1.450, 0.643]]] }, "properties": { "cost": 0.0, "endid": 17, "id": 133, "overridable": true, "startid": 21 } },
    { "type": "Feature", "geometry": { "type": "MultiLineString", "coordinates": [[[-1.450, 1.443], [-1.450, 2.243]]] }, "properties": { "cost": 0.0, "endid": 19, "id": 134, "overridable": true, "startid": 21 } },
    { "type": "Feature", "geometry": { "type": "MultiLineString", "coordinates": [[[-1.450, 2.243], [-1.450, 1.443]]] }, "properties": { "cost": 0.0, "endid": 21, "id": 135, "overridable": true, "startid": 19 } },
    { "type": "Feature", "geometry": { "type": "MultiLineString", "coordinates": [[[-2.250, 1.443], [-1.450, 1.443]]] }, "properties": { "cost": 0.0, "endid": 21, "id": 136, "overridable": true, "startid": 20 } },
    { "type": "Feature", "geometry": { "type": "MultiLineString", "coordinates": [[[-1.450, 1.443], [-2.250, 1.443]]] }, "properties": { "cost": 0.0, "endid": 20, "id": 137, "overridable": true, "startid": 21 } },
    { "type": "Feature", "geometry": { "type": "MultiLineString", "coordinates": [[[-1.450, 1.443], [-0.650, 1.443]]] }, "properties": { "cost": 0.0, "endid": 18, "id": 138, "overridable": true, "startid": 21 } },
    { "type": "Feature", "geometry": { "type": "MultiLineString", "coordinates": [[[-0.650, 1.443], [-1.450, 1.443]]] }, "properties": { "cost": 0.0, "endid": 21, "id": 139, "overridable": true, "startid": 18 } }
  ]
}
